NORAD_CAT_ID,OBJECT_NAME,OBJECT_TYPE,EPOCH,MEAN_MOTION,ECCENTRICITY,INCLINATION,RA_OF_ASC_NODE,ARG_OF_PERICENTER,MEAN_ANOMALY,BSTAR,MEAN_MOTION_DOT,MEAN_MOTION_DDOT,TLE_LINE0,TLE_LINE1,TLE_LINE2,SEMIMAJOR_AXIS,PERIOD,APOGEE,PERIGEE,DECAYED
49752.0,STARLINK-3209,PAYLOAD,2022-02-03 06:00:00,15.40500099,0.0003291,53.2178,23.7345,14.4789,56.894,-0.0022793,-0.00093142,0.0,0 STARLINK-3209,1 49752U 21115AE  22034.25001157 -.00093142  00000-0 -22793-2 0  9995,2 49752  53.2178  23.7345 0003291  14.4789  56.8940 15.40500099 10867,6822.769,93.476,446.88,442.389,0.0
49752.0,STARLINK-3209,PAYLOAD,2022-02-03 14:00:01,15.40489419,0.0003248,53.2186,22.1663,12.8074,108.1823,-0.00090988,-0.00037679,0.0,0 STARLINK-3209,1 49752U 21115AE  22034.58334491 -.00037679  00000-0 -90988-3 0  9996,2 49752  53.2186  22.1663 0003248  12.8074 108.1823 15.40489419 10912,6822.801,93.477,446.882,442.45,0.0
49752.0,STARLINK-3209,PAYLOAD,2022-02-03 22:00:01,15.40475558,0.0003023,53.219,20.5944,15.1378,155.5424,0.000553,0.00022416,0.0,0 STARLINK-3209,1 49752U 21115AE  22034.91668981  .00022416  00000-0  55300-3 0  9997,2 49752  53.2190  20.5944 0003023  15.1378 155.5424 15.40475558  3649,6822.842,93.478,446.769,442.644,0.0
49752.0,STARLINK-3209,PAYLOAD,2022-02-04 06:00:00,15.40502973,0.0003253,53.2192,19.0257,14.6887,205.5813,0.00022466,8.859e-05,0.0,0 STARLINK-3209,1 49752U 21115AE  22035.25001157  .00008859  00000-0  22466-3 0  9993,2 49752  53.2192  19.0257 0003253  14.6887 205.5813 15.40502973 11015,6822.761,93.476,446.845,442.406,0.0
49752.0,STARLINK-3209,PAYLOAD,2022-02-04 14:00:01,15.40510442,0.0003191999999999,53.2189,17.4546,10.9432,258.9848,-0.0015197,-0.00062503,0.0,0 STARLINK-3209,1 49752U 21115AE  22035.58335648 -.00062503  00000-0 -15197-2 0  9994,2 49752  53.2189  17.4546 0003192  10.9432 258.9848 15.40510442 11066,6822.739000000001,93.476,446.782,442.426,0.0
49752.0,STARLINK-3209,PAYLOAD,2022-02-04 22:00:00,15.40495534,0.0002985,53.2192,15.8831,12.6829,306.8004,-0.002969,-0.00120748,0.0,0 STARLINK-3209,1 49752U 21115AE  22035.91667824 -.00120748  00000-0 -29690-2 0  9994,2 49752  53.2192  15.8831 0002985  12.6829 306.8004 15.40495534  3632,6822.783,93.476,446.684,442.611,0.0
49752.0,STARLINK-3209,PAYLOAD,2022-02-05 06:00:00,15.40374946,0.0003211,53.219,14.3146,16.1355,352.9913,0.0027148,0.00112583,0.0,0 STARLINK-3209,1 49752U 21115AE  22036.25001157  .00112583  00000-0  27148-2 0  9995,2 49752  53.2190  14.3146 0003211  16.1355 352.9913 15.40374946 11171,6823.139,93.484,447.195,442.81300000000016,0.0
49752.0,STARLINK-3209,PAYLOAD,2022-02-05 14:00:01,15.40483345,0.000317,53.2186,12.7435,13.8184,44.8197,0.00069508,0.00028309,0.0,0 STARLINK-3209,1 49752U 21115AE  22036.58334491  .00028309  00000-0  69508-3 0  9990,2 49752  53.2186  12.7435 0003170  13.8184  44.8197 15.40483345  3612,6822.819,93.477,446.847,442.521,0.0
49752.0,STARLINK-3209,PAYLOAD,2022-02-05 22:00:01,15.40523915,0.0002952,53.2188,11.172,16.4735,91.8542,-0.0011970999999999,-0.00049424,0.0,0 STARLINK-3209,1 49752U 21115AE  22036.91668981 -.00049424  00000-0 -11971-2 0  9994,2 49752  53.2188  11.1720 0002952  16.4735  91.8542 15.40523915 11277,6822.699000000001,93.475,446.578,442.55,0.0
49752.0,STARLINK-3209,PAYLOAD,2022-02-06 06:00:00,15.40467802,0.0003244,53.2185,9.6036,16.1649,141.7127,-0.0035509,-0.00143779,0.0,0 STARLINK-3209,1 49752U 21115AE  22037.25001157 -.00143779  00000-0 -35509-2 0  9999,2 49752  53.2185   9.6036 0003244  16.1649 141.7127 15.40467802 11324,6822.865,93.478,446.943,442.516,0.0
49752.0,STARLINK-3209,PAYLOAD,2022-02-06 14:00:01,15.40359018,0.0003108,53.2182,8.0322,16.7402,190.7527,-6.9436e-05,-3.249e-05,0.0,0 STARLINK-3209,1 49752U 21115AE  22037.58335648 -.00003249  00000-0 -69436-4 0  9995,2 49752  53.2182   8.0322 0003108  16.7402 190.7527 15.40359018 11376,6823.186,93.485,447.172,442.93,0.0
49752.0,STARLINK-3209,PAYLOAD,2022-02-06 20:00:01,15.40314404,0.0002896,53.2182,6.8537,18.262,136.2607,0.0043614,0.00182415,0.0,0 STARLINK-3209,1 49752U 21115AE  22037.83334491  .00182415  00000-0  43614-2 0  9997,2 49752  53.2182   6.8537 0002896  18.2620 136.2607 15.40314404 11411,6823.318,93.487,447.159,443.207,0.0
49752.0,STARLINK-3209,PAYLOAD,2022-02-06 22:00:00,15.40352169,0.0002881,53.2184,6.4612,18.6245,238.2533,0.0039736999999999,0.00166012,0.0,0 STARLINK-3209,1 49752U 21115AE  22037.91667824  .00166012  00000-0  39737-2 0  9991,2 49752  53.2184   6.4612 0002881  18.6245 238.2533 15.40352169  3630,6823.206,93.485,447.037,443.105,0.0
49752.0,STARLINK-3209,PAYLOAD,2022-02-07 06:00:00,15.40468233,0.0003112,53.2185,4.893,15.1496,291.2486,-0.00011886,-5.291e-05,0.0,0 STARLINK-3209,1 49752U 21115AE  22038.25001157 -.00005291  00000-0 -11886-3 0  9999,2 49752  53.2185   4.8930 0003112  15.1496 291.2486 15.40468233 11482,6822.863,93.478,446.852,442.605,0.0
49752.0,STARLINK-3209,PAYLOAD,2022-02-07 14:00:01,15.40479774,0.0002991,53.2183,3.3213,14.467,341.52,-0.001288,-0.00053045,0.0,0 STARLINK-3209,1 49752U 21115AE  22038.58334491 -.00053045  00000-0 -12880-2 0  9999,2 49752  53.2183   3.3213 0002991  14.4670 341.5200 15.40479774  3642,6822.829000000002,93.477,446.735,442.654,0.0
49752.0,STARLINK-3209,PAYLOAD,2022-02-07 22:00:00,15.40453668,0.0002845,53.2186,1.7502,15.8504,29.7182,0.00068475,0.00027853,0.0,0 STARLINK-3209,1 49752U 21115AE  22038.91667824  .00027853  00000-0  68475-3 0  9993,2 49752  53.2186   1.7502 0002845  15.8504  29.7182 15.40453668  3656,6822.906,93.479,446.713,442.83,0.0
49752.0,STARLINK-3209,PAYLOAD,2022-02-08 14:00:01,15.40477176,0.0002955,53.2189,358.6098,11.7812,132.952,-0.00023922,-0.00010235,0.0,0 STARLINK-3209,1 49752U 21115AE  22039.58334491 -.00010235  00000-0 -23922-3 0  9994,2 49752  53.2189 358.6098 0002955  11.7812 132.9520 15.40477176 11687,6822.837,93.478,446.718,442.686,0.0
49752.0,STARLINK-3209,PAYLOAD,2022-02-08 22:00:01,15.40489874,0.0002831,53.2192,357.0388,15.2839,179.1191,-6.6654e-06,-6.79e-06,0.0,0 STARLINK-3209,1 49752U 21115AE  22039.91668981 -.00000679  00000-0 -66654-5 0  9997,2 49752  53.2192 357.0388 0002831  15.2839 179.1191 15.40489874  3616,6822.8,93.477,446.596,442.733,0.0
49752.0,STARLINK-3209,PAYLOAD,2022-02-09 06:00:00,15.40475115,0.000309,53.2193,355.4702,14.2934,229.6718,0.00033157,0.00013262,0.0,0 STARLINK-3209,1 49752U 21115AE  22040.25001157  .00013262  00000-0  33157-3 0  9992,2 49752  53.2193 355.4702 0003090  14.2934 229.6718 15.40475115 11788,6822.843000000003,93.478,446.816,442.6,0.0
49752.0,STARLINK-3209,PAYLOAD,2022-02-09 14:17:17,15.40481498,0.0003058999999999,53.219,353.8408,18.5323,341.5793,0.00016661,6.458e-05,0.0,0 STARLINK-3209,1 49752U 21115AE  22040.59533741  .00006458  00000-0  16661-3 0  9998,2 49752  53.2190 353.8408 0003059  18.5323 341.5793 15.40481498 10736,6822.824000000001,93.477,446.776,442.602,0.0
49752.0,STARLINK-3209,PAYLOAD,2022-02-09 22:00:00,15.40500057,0.0002923,53.2194,352.3273,18.5946,324.5664,-0.00064197,-0.00026749,0.0,0 STARLINK-3209,1 49752U 21115AE  22040.91667824 -.00026749  00000-0 -64197-3 0  9998,2 49752  53.2194 352.3273 0002923  18.5946 324.5664 15.40500057 11893,6822.769,93.476,446.629,442.64,0.0
49752.0,STARLINK-3209,PAYLOAD,2022-02-10 13:38:40,15.40479924,0.0003309,53.2187,349.2571,20.3617,339.7519999999999,7.865300000000001e-05,2.833e-05,0.0,0 STARLINK-3209,1 49752U 21115AE  22041.56851867  .00002833  00000-0  78653-4 0  9991,2 49752  53.2187 349.2571 0003309  20.3617 339.7520 15.40479924 10881,6822.829000000002,93.477,446.952,442.436,0.0
49752.0,STARLINK-3209,PAYLOAD,2022-02-10 22:00:00,15.404778,0.0002833999999999,53.219,347.616,15.1112,116.867,0.0010421,0.00042717,0.0,0 STARLINK-3209,1 49752U 21115AE  22041.91667824  .00042717  00000-0  10421-2 0  9990,2 49752  53.2190 347.6160 0002834  15.1112 116.8670 15.40477800 12046,6822.835,93.477,446.634,442.767,0.0
49752.0,STARLINK-3209,PAYLOAD,2022-02-11 05:12:54,15.40512227,0.0002494,53.2188,346.1991,18.6488,341.4609,0.00043754,0.00017662,0.0,0 STARLINK-3209,1 49752U 21115AE  22042.21729430  .00017662  00000-0  43754-3 0  9993,2 49752  53.2188 346.1991 0002494  18.6488 341.4609 15.40512227 12091,6822.734,93.475,446.3,442.897,0.0
49752.0,STARLINK-3209,PAYLOAD,2022-02-11 13:00:00,15.40542782,0.0003017,53.2184,344.6713,11.8349,348.2727,0.00074504,0.00030442,0.0,0 STARLINK-3209,1 49752U 21115AE  22042.54167450  .00030442  00000-0  74504-3 0  9995,2 49752  53.2184 344.6713 0003017  11.8349 348.2727 15.40542782 12146,6822.643,93.474,446.567,442.45,0.0
49752.0,STARLINK-3209,PAYLOAD,2022-02-11 20:47:07,15.40550061,0.0004221,53.2195,343.1437,11.5042,348.6059,0.00041209,0.00016632,0.0,0 STARLINK-3209,1 49752U 21115AE  22042.86605641  .00016632  00000-0  41209-3 0  9990,2 49752  53.2195 343.1437 0004221  11.5042 348.6059 15.40550061 11083,6822.621999999999,93.473,447.367,441.607,0.0
49752.0,STARLINK-3209,PAYLOAD,2022-02-12 06:00:00,15.40522382,0.0003006,53.2183,341.3353,13.6427,317.0608,-0.0033524,-0.00136139,0.0,0 STARLINK-3209,1 49752U 21115AE  22043.25001157 -.00136139  00000-0 -33524-2 0  9993,2 49752  53.2183 341.3353 0003006  13.6427 317.0608 15.40522382 12252,6822.704000000002,93.475,446.619,442.518,0.0
49752.0,STARLINK-3209,PAYLOAD,2022-02-12 12:21:20,15.40517964,0.0003143,53.219,340.0855,17.0222,343.0889,-3.6976e-05,-1.928e-05,0.0,0 STARLINK-3209,1 49752U 21115AE  22043.51482076 -.00001928  00000-0 -36976-4 0  9998,2 49752  53.2190 340.0855 0003143  17.0222 343.0889 15.40517964 11187,6822.717,93.475,446.726,442.437,0.0
49752.0,STARLINK-3209,PAYLOAD,2022-02-12 22:00:00,15.40252869,0.0002883,53.2184,338.1929,21.3468,48.4449,0.004131,0.00172174,0.0,0 STARLINK-3209,1 49752U 21115AE  22043.91667824  .00172174  00000-0  41310-2 0  9994,2 49752  53.2184 338.1929 0002883  21.3468  48.4449 15.40252869 12358,6823.499,93.491,447.332,443.397,0.0
